[
    {
        "Altitude(m)": 611967.1602300105,
        "Argument of Periapsis(deg)": 0.0,
        "Eccentricity": 0.0,
        "Inclination(deg)": 60.0,
        "Latitude(deg)": 59.1401048852486,
        "Longitude(deg)": -143.90777843704936,
        "Mean Anomaly(deg)": 98.18179999999998,
        "RAAN(deg)": 210.0,
        "Satellite Name": "Test1 930",
        "Satellite Number": 930,
        "Semi-Major Axis(m)": 6980739.136638005,
        "Time(s)": 0
    },
    {
        "Altitude(m)": 611934.3594058065,
        "Argument of Periapsis(deg)": 0.00010418945913296404,
        "Eccentricity": 0.0,
        "Inclination(deg)": 60.0,
        "Latitude(deg)": 58.98646515320181,
        "Longitude(deg)": -142.7845355727985,
        "Mean Anomaly(deg)": 98.80190614546179,
        "RAAN(deg)": 209.99957995086027,
        "Satellite Name": "Test1 930",
        "Satellite Number": 930,
        "Semi-Major Axis(m)": 6980739.136638005,
        "Time(s)": 10
    }
]